NORAD_CAT_ID,OBJECT_NAME,OBJECT_TYPE,EPOCH,MEAN_MOTION,ECCENTRICITY,INCLINATION,RA_OF_ASC_NODE,ARG_OF_PERICENTER,MEAN_ANOMALY,BSTAR,MEAN_MOTION_DOT,MEAN_MOTION_DDOT,TLE_LINE0,TLE_LINE1,TLE_LINE2,SEMIMAJOR_AXIS,PERIOD,APOGEE,PERIGEE,DECAYED
53566.0,STARLINK-4576,PAYLOAD,2023-12-22 11:35:51,15.08837927,0.0001386,53.2176,82.2901,91.2288,268.8863,7.4797e-05,9.03e-06,0.0,0 STARLINK-4576,1 53566U 22101AR  23356.48323100  .00000903  00000-0  74797-4 0  9991,2 53566  53.2176  82.2901 0001386  91.2288 268.8863 15.08837927 74430,6917.887,95.438,540.711,538.793,0.0
53566.0,STARLINK-4576,PAYLOAD,2023-12-23 14:37:24,15.08849852,0.0001418,53.2184,77.2349,81.708,278.4073,-1.0986e-05,-4.63e-06,0.0,0 STARLINK-4576,1 53566U 22101AR  23357.60930920 -.00000463  00000-0 -10986-4 0  9993,2 53566  53.2184  77.2349 0001418  81.7080 278.4073 15.08849852 75294,6917.85,95.437,540.696,538.734,0.0
53566.0,STARLINK-4576,PAYLOAD,2023-12-24 11:17:25,15.08842223,0.0001384,53.218,73.3703,85.7095,274.4055,6.3402e-05,7.21e-06,0.0,0 STARLINK-4576,1 53566U 22101AR  23358.47043211  .00000721  00000-0  63402-4 0  9993,2 53566  53.2180  73.3703 0001384  85.7095 274.4055 15.08842223 74732,6917.874,95.437,540.696,538.781,0.0
53566.0,STARLINK-4576,PAYLOAD,2023-12-24 14:28:10,15.08853107,0.0001488,53.2196,72.7695,87.4966,272.6197,0.00011702,1.576e-05,0.0,0 STARLINK-4576,1 53566U 22101AR  23358.60290166  .00001576  00000-0  11702-3 0  9995,2 53566  53.2196  72.7695 0001488  87.4966 272.6197 15.08853107 75442,6917.84,95.437,540.735,538.676,0.0
53566.0,STARLINK-4576,PAYLOAD,2023-12-25 11:08:12,15.08845875,0.0001383,53.2179,68.9114,89.0107,271.1044,4.5239e-05,4.32e-06,0.0,0 STARLINK-4576,1 53566U 22101AR  23359.46402990  .00000432  00000-0  45239-4 0  9993,2 53566  53.2179  68.9114 0001383  89.0107 271.1044 15.08845875 74880,6917.862,95.437,540.684,538.771,0.0
53566.0,STARLINK-4576,PAYLOAD,2023-12-26 10:58:59,15.08836268,0.000161,53.2181,64.4507,81.9864,278.1311,2.4869e-05,1.08e-06,0.0,0 STARLINK-4576,1 53566U 22101AR  23360.45763816  .00000108  00000-0  24869-4 0  9997,2 53566  53.2181  64.4507 0001610  81.9864 278.1311 15.08836268 75032,6917.892,95.438,540.871,538.643,0.0
53566.0,STARLINK-4576,PAYLOAD,2023-12-26 14:09:45,15.08845698,0.0001405,53.2179,63.8536,93.1645,266.9508,-2.7725e-05,-7.29e-06,0.0,0 STARLINK-4576,1 53566U 22101AR  23360.59011324 -.00000729  00000-0 -27725-4 0  9997,2 53566  53.2179  63.8536 0001405  93.1645 266.9508 15.08845698 75746,6917.863,95.437,540.7,538.756,0.0
53566.0,STARLINK-4576,PAYLOAD,2023-12-27 04:28:14,15.08840999,0.0001512,53.218,61.1774,94.7955,265.3209,-2.46e-05,-6.79e-06,0.0,0 STARLINK-4576,1 53566U 22101AR  23361.18627709 -.00000679  00000-0 -24600-4 0  9996,2 53566  53.2180  61.1774 0001512  94.7955 265.3209 15.08840999 75147,6917.877,95.437,540.788,538.696,0.0
53566.0,STARLINK-4576,PAYLOAD,2023-12-27 10:49:46,15.08846783,0.0001546,53.2182,59.989,100.8051,259.3115,5.8487e-05,6.43e-06,0.0,0 STARLINK-4576,1 53566U 22101AR  23361.45123072  .00000643  00000-0  58487-4 0  9999,2 53566  53.2182  59.9890 0001546 100.8051 259.3115 15.08846783 75186,6917.86,95.437,540.794,538.655,0.0
53566.0,STARLINK-4576,PAYLOAD,2023-12-27 14:00:32,15.08849128,0.0001511,53.2179,59.3933,103.0453,257.0708,0.00010528,1.388e-05,0.0,0 STARLINK-4576,1 53566U 22101AR  23361.58370777  .00001388  00000-0  10528-3 0  9999,2 53566  53.2179  59.3933 0001511 103.0453 257.0708 15.08849128 75894,6917.852,95.437,540.763,538.672,0.0
53566.0,STARLINK-4576,PAYLOAD,2023-12-28 04:19:01,15.08836528,0.0001526,53.2177,56.7152,98.527,261.5895,3.5162e-05,2.72e-06,0.0,0 STARLINK-4576,1 53566U 22101AR  23362.17987843  .00000272  00000-0  35162-4 0  9996,2 53566  53.2177  56.7152 0001526  98.5270 261.5895 15.08836528 75298,6917.891,95.438,540.812,538.7,0.0
53566.0,STARLINK-4576,PAYLOAD,2023-12-28 10:40:33,15.08840001,0.0001502,53.2182,55.5256,95.28,264.8364,4.6565e-05,4.53e-06,0.0,0 STARLINK-4576,1 53566U 22101AR  23362.44483596  .00000453  00000-0  46565-4 0  9992,2 53566  53.2182  55.5256 0001502  95.2800 264.8364 15.08840001 76023,6917.88,95.438,540.784,538.706,0.0
53566.0,STARLINK-4576,PAYLOAD,2023-12-29 08:55:58,15.08822675,0.0001517,53.2178,51.3623,98.5636,261.5528,0.00025957,3.844e-05,0.0,0 STARLINK-4576,1 53566U 22101AR  23363.37220360  .00003844  00000-0  25957-3 0  9991,2 53566  53.2178  51.3623 0001517  98.5636 261.5528 15.08822675 75470,6917.933,95.439,540.848,538.749,0.0
53566.0,STARLINK-4576,PAYLOAD,2023-12-30 02:25:12,15.08835046,0.0001584,53.2173,48.0949,96.9088,263.2084,5.06e-05,5.17e-06,0.0,0 STARLINK-4576,1 53566U 22101AR  23364.10084152  .00000517  00000-0  50600-4 0  9998,2 53566  53.2173  48.0949 0001584  96.9088 263.2084 15.08835046 75580,6917.896,95.438,540.856,538.665,0.0
53566.0,STARLINK-4576,PAYLOAD,2023-12-30 10:22:08,15.08839478,0.0001473,53.2186,46.6087,86.7047,273.4114,6.0868e-05,6.81e-06,0.0,0 STARLINK-4576,1 53566U 22101AR  23364.43204018  .00000681  00000-0  60868-4 0  9998,2 53566  53.2186  46.6087 0001473  86.7047 273.4114 15.08839478 76323,6917.882,95.438,540.766,538.728,0.0
53566.0,STARLINK-4576,PAYLOAD,2023-12-31 10:12:55,15.08838428,0.0001494,53.218,42.1483,89.1637,270.9526,5.0068e-05,5.09e-06,0.0,0 STARLINK-4576,1 53566U 22101AR  23365.42564406  .00000509  00000-0  50068-4 0  9998,2 53566  53.2180  42.1483 0001494  89.1637 270.9526 15.08838428 75785,6917.885,95.438,540.784,538.717,0.0
53566.0,STARLINK-4576,PAYLOAD,2024-01-01 11:39:06,15.08831237,0.0001723,53.2184,37.3915,74.096,286.0222,0.00021371,3.114e-05,0.0,0 STARLINK-4576,1 53566U 22101AR  24001.48548736  .00003114  00000-0  21371-3 0  9999,2 53566  53.2184  37.3915 0001723  74.0960 286.0222 15.08831237 75942,6917.907,95.438,540.964,538.58,0.0
53566.0,STARLINK-4576,PAYLOAD,2024-01-02 08:19:06,15.08843478,0.0001563,53.2175,33.5245,90.0442,270.0729,5.0211e-05,5.11e-06,0.0,0 STARLINK-4576,1 53566U 22101AR  24002.34660324  .00000511  00000-0  50211-4 0  9997,2 53566  53.2175  33.5245 0001563  90.0442 270.0729 15.08843478 76071,6917.87,95.437,540.816,538.653,0.0
53566.0,STARLINK-4576,PAYLOAD,2024-01-03 08:09:53,15.08841076,0.0001515,53.2175,29.0634,95.314,264.8025,1.0695e-05,-1.18e-06,0.0,0 STARLINK-4576,1 53566U 22101AR  24003.34020525 -.00000118  00000-0  10695-4 0  9997,2 53566  53.2175  29.0634 0001515  95.3140 264.8025 15.08841076 76918,6917.877,95.437,540.79,538.694,0.0
53566.0,STARLINK-4576,PAYLOAD,2024-01-04 04:49:54,15.08838546,0.0001483,53.2173,25.199,85.2443,274.8719,-8.0005e-06,-4.15e-06,0.0,0 STARLINK-4576,1 53566U 22101AR  24004.20132818 -.00000415  00000-0 -80005-5 0  9996,2 53566  53.2173  25.1990 0001483  85.2443 274.8719 15.08838546 77040,6917.885,95.438,540.776,538.724,0.0
53566.0,STARLINK-4576,PAYLOAD,2024-01-05 04:40:41,15.08835692,0.0001466,53.2179,20.7402,91.3529,268.7631,2.4808e-05,1.07e-06,0.0,0 STARLINK-4576,1 53566U 22101AR  24005.19492976  .00000107  00000-0  24808-4 0  9993,2 53566  53.2179  20.7402 0001466  91.3529 268.7631 15.08835692 76503,6917.894,95.438,540.773,538.744,0.0
53566.0,STARLINK-4576,PAYLOAD,2024-01-05 06:16:05,15.08836069,0.0001459,53.218,20.4431,90.599,269.517,2.8055e-05,1.59e-06,0.0,0 STARLINK-4576,1 53566U 22101AR  24005.26116976  .00000159  00000-0  28055-4 0  9999,2 53566  53.2180  20.4431 0001459  90.5990 269.5170 15.08836069 77203,6917.892,95.438,540.767,538.748,0.0
53566.0,STARLINK-4576,PAYLOAD,2024-01-06 06:06:51,15.08839831,0.0001509,53.2178,15.9817,101.9933,258.1228,6.4006e-05,7.31e-06,0.0,0 STARLINK-4576,1 53566U 22101AR  24006.25476715  .00000731  00000-0  64006-4 0  9991,2 53566  53.2178  15.9817 0001509 101.9933 258.1228 15.08839831 76664,6917.881,95.438,540.79,538.702,0.0
53566.0,STARLINK-4576,PAYLOAD,2024-01-07 04:22:16,15.08833985,0.0001431,53.2176,11.8179,97.5462,262.5693,7.5109e-06,-1.68e-06,0.0,0 STARLINK-4576,1 53566U 22101AR  24007.18213401 -.00000168  00000-0  75109-5 0  9997,2 53566  53.2176  11.8179 0001431  97.5462 262.5693 15.08833985 76804,6917.899,95.438,540.754,538.774,0.0
53566.0,STARLINK-4576,PAYLOAD,2024-01-07 09:08:25,15.08837766,0.0001468,53.2176,10.9259,99.9635,260.1523,3.7817e-05,3.14e-06,0.0,0 STARLINK-4576,1 53566U 22101AR  24007.38085121  .00000314  00000-0  37817-4 0  9990,2 53566  53.2176  10.9259 0001468  99.9635 260.1523 15.08837766 77528,6917.887,95.438,540.768,538.737,0.0
53566.0,STARLINK-4576,PAYLOAD,2024-01-08 04:13:02,15.08842582,0.0001408,53.2176,7.3572,103.714,256.4009,3.2029e-05,2.22e-06,0.0,0 STARLINK-4576,1 53566U 22101AR  24008.17572886  .00000222  00000-0  32029-4 0  9995,2 53566  53.2176   7.3572 0001408 103.7140 256.4009 15.08842582 76950,6917.872,95.437,540.712,538.763,0.0
53566.0,STARLINK-4576,PAYLOAD,2024-01-08 08:59:12,15.08844587,0.0001422,53.2177,6.4628,99.1679,260.9474,6.8172e-05,7.97e-06,0.0,0 STARLINK-4576,1 53566U 22101AR  24008.37444621  .00000797  00000-0  68172-4 0  9997,2 53566  53.2177   6.4628 0001422  99.1679 260.9474 15.08844587 77677,6917.866,95.437,540.715,538.748,0.0
53566.0,STARLINK-4576,PAYLOAD,2024-01-09 04:03:50,15.08835389,0.0001384,53.2184,2.8949,93.2324,266.8826,4.3173e-05,3.99e-06,0.0,0 STARLINK-4576,1 53566U 22101AR  24009.16933457  .00000399  00000-0  43173-4 0  9997,2 53566  53.2184   2.8949 0001384  93.2324 266.8826 15.08835389 77104,6917.894,95.438,540.717,538.802,0.0
53566.0,STARLINK-4576,PAYLOAD,2024-01-09 08:49:59,15.08840353,0.0001448,53.2175,2.0007,99.5704,260.5452,7.5302e-05,9.11e-06,0.0,0 STARLINK-4576,1 53566U 22101AR  24009.36805012  .00000911  00000-0  75302-4 0  9993,2 53566  53.2175   2.0007 0001448  99.5704 260.5452 15.08840353 77825,6917.879,95.438,540.746,538.743,0.0
53566.0,STARLINK-4576,PAYLOAD,2024-01-10 08:40:45,15.08852963,0.0001523,53.2172,357.5412,113.6709,246.4443,0.00010493,1.383e-05,0.0,0 STARLINK-4576,1 53566U 22101AR  24010.36163884  .00001383  00000-0  10493-3 0  9992,2 53566  53.2172 357.5412 0001523 113.6709 246.4443 15.08852963 77280,6917.841,95.437,540.759,538.652,0.0
